CTC2_L_00472016-03
1 10062U 25042PR  26075.70046296  .00000000  00000+0  00000-0 0  9995
2 10062  82.0000 180.0000 0000000   0.0000   0.0000 15.08756051    19
CTC2_L_00472016-04
1 10063U 26599RH  26075.70046296  .00000000  00000+0  00000-0 0  9994
2 10063  82.0000 180.0000 0000000   0.0000  90.0000 15.08756051    19
CTC2_L_00472017-01
1 10064U 22686QU  26075.70046296  .00000000  00000+0  00000-0 0  9998
2 10064  82.0000 192.0000 0000000   0.0000 192.0000 15.08756051    16
CTC2_L_00472017-02
1 10065U 26046VJ  26075.70046296  .00000000  00000+0  00000-0 0  9993
2 10065  82.0000 192.0000 0000000   0.0000 282.0000 15.08756051    17
CTC2_L_00472017-03
1 10066U 24758QQ  26075.70046296  .00000000  00000+0  00000-0 0  9992
2 10066  82.0000 192.0000 0000000   0.0000  12.0000 15.08756051    19
CTC2_L_00472017-04
1 10067U 25703RC  26075.70046296  .00000000  00000+0  00000-0 0  9994
2 10067  82.0000 192.0000 0000000   0.0000 102.0000 15.08756051    10
CTC2_L_00472018-01
1 10068U 24002XA  26075.70046296  .00000000  00000+0  00000-0 0  9996
2 10068  82.0000 204.0000 0000000   0.0000 204.0000 15.08756051    18
CTC2_L_00472018-02
1 10069U 25688DJ  26075.70046296  .00000000  00000+0  00000-0 0  9998
2 10069  82.0000 204.0000 0000000   0.0000 294.0000 15.08756051    18
CTC2_L_00472018-03
1 10070U 25801OH  26075.70046296  .00000000  00000+0  00000-0 0  9997
2 10070  82.0000 204.0000 0000000   0.0000  24.0000 15.08756051    11
CTC2_L_00472018-04
1 10071U 26154WH  26075.70046296  .00000000  00000+0  00000-0 0  9990
2 10071  82.0000 204.0000 0000000   0.0000 114.0000 15.08756051    12
CTC2_L_00472019-01
1 10072U 26908LF  26075.70046296  .00000000  00000+0  00000-0 0  9998
2 10072  82.0000 216.0000 0000000   0.0000 216.0000 15.08756051    19
CTC2_L_00472019-02
1 10073U 25380TE  26075.70046296  .00000000  00000+0  00000-0 0  9992
2 10073  82.0000 216.0000 0000000   0.0000 306.0000 15.08756051    10
CTC2_L_00472019-03
1 10074U 22964XK  26075.70046296  .00000000  00000+0  00000-0 0  9998
2 10074  82.0000 216.0000 0000000   0.0000  36.0000 15.08756051    11
CTC2_L_00472019-04
1 10075U 23171FH  26075.70046296  .00000000  00000+0  00000-0 0  9990
2 10075  82.0000 216.0000 0000000   0.0000 126.0000 15.08756051    12
CTC2_L_00472020-01
1 10076U 22536Y   26075.70046296  .00000000  00000+0  00000-0 0  9995
2 10076  82.0000 228.0000 0000000   0.0000 228.0000 15.08756051    19
CTC2_L_00472020-02
1 10077U 23331UY  26075.70046296  .00000000  00000+0  00000-0 0  9990
2 10077  82.0000 228.0000 0000000   0.0000 318.0000 15.08756051    10
CTC2_L_00472020-03
1 10078U 23406VY  26075.70046296  .00000000  00000+0  00000-0 0  9994
2 10078  82.0000 228.0000 0000000   0.0000  48.0000 15.08756051    11
CTC2_L_00472020-04
1 10079U 23808EG  26075.70046296  .00000000  00000+0  00000-0 0  9991
2 10079  82.0000 228.0000 0000000   0.0000 138.0000 15.08756051    12
CTC2_L_00472021-01
1 10080U 22205YF  26075.70046296  .00000000  00000+0  00000-0 0  9993
2 10080  82.0000 240.0000 0000000   0.0000 240.0000 15.08756051    12
CTC2_L_00472021-02
1 10081U 23186HF  26075.70046296  .00000000  00000+0  00000-0 0  9993
2 10081  82.0000 240.0000 0000000   0.0000 330.0000 15.08756051    13
CTC2_L_00472021-03
1 10082U 25534II  26075.70046296  .00000000  00000+0  00000-0 0  9993
2 10082  82.0000 240.0000 0000000   0.0000  60.0000 15.08756051    14
CTC2_L_00472021-04
1 10083U 23550AD  26075.70046296  .00000000  00000+0  00000-0 0  9990
2 10083  82.0000 240.0000 0000000   0.0000 150.0000 15.08756051    15
CTC2_L_00472022-01
1 10084U 25496JS  26075.70046296  .00000000  00000+0  00000-0 0  9992
2 10084  82.0000 252.0000 0000000   0.0000 252.0000 15.08756051    12
CTC2_L_00472022-02
1 10085U 25632ZA  26075.70046296  .00000000  00000+0  00000-0 0  9995
2 10085  82.0000 252.0000 0000000   0.0000 342.0000 15.08756051    13
CTC2_L_00472022-03
1 10086U 26847OB  26075.70046296  .00000000  00000+0  00000-0 0  9995
2 10086  82.0000 252.0000 0000000   0.0000  72.0000 15.08756051    14
CTC2_L_00472022-04
1 10087U 22411GR  26075.70046296  .00000000  00000+0  00000-0 0  9999
2 10087  82.0000 252.0000 0000000   0.0000 162.0000 15.08756051    15
CTC2_L_00472023-01
1 10088U 25279UP  26075.70046296  .00000000  00000+0  00000-0 0  9995
2 10088  82.0000 264.0000 0000000   0.0000 264.0000 15.08756051    12
CTC2_L_00472023-02
1 10089U 25116VO  26075.70046296  .00000000  00000+0  00000-0 0  9996
2 10089  82.0000 264.0000 0000000   0.0000 354.0000 15.08756051    13
CTC2_L_00472023-03
1 10090U 25398LQ  26075.70046296  .00000000  00000+0  00000-0 0  9990
2 10090  82.0000 264.0000 0000000   0.0000  84.0000 15.08756051    15
CTC2_L_00472023-04
1 10091U 24441NN  26075.70046296  .00000000  00000+0  00000-0 0  9999
2 10091  82.0000 264.0000 0000000   0.0000 174.0000 15.08756051    16
CTC2_L_00472024-01
1 10092U 26932LT  26075.70046296  .00000000  00000+0  00000-0 0  9997
2 10092  82.0000 276.0000 0000000   0.0000 276.0000 15.08756051    13
CTC2_L_00472024-02
1 10093U 24524BQ  26075.70046296  .00000000  00000+0  00000-0 0  9993
2 10093  82.0000 276.0000 0000000   0.0000   6.0000 15.08756051    15
CTC2_L_00472024-03
1 10094U 22936KO  26075.70046296  .00000000  00000+0  00000-0 0  9999
2 10094  82.0000 276.0000 0000000   0.0000  96.0000 15.08756051    15
CTC2_L_00472024-04
1 10095U 24182SI  26075.70046296  .00000000  00000+0  00000-0 0  9995
2 10095  82.0000 276.0000 0000000   0.0000 186.0000 15.08756051    16
CTC2_L_00472025-01
1 10096U 22075AN  26075.70046296  .00000000  00000+0  00000-0 0  9995
2 10096  82.0000 288.0000 0000000   0.0000 288.0000 15.08756051    13
CTC2_L_00472025-02
1 10097U 24382NQ  26075.70046296  .00000000  00000+0  00000-0 0  9999
2 10097  82.0000 288.0000 0000000   0.0000  18.0000 15.08756051    15
CTC2_L_00472025-03
1 10098U 26145SG  26075.70046296  .00000000  00000+0  00000-0 0  9999
2 10098  82.0000 288.0000 0000000   0.0000 108.0000 15.08756051    16
CTC2_L_00472025-04
1 10099U 24833BW  26075.70046296  .00000000  00000+0  00000-0 0  9992
2 10099  82.0000 288.0000 0000000   0.0000 198.0000 15.08756051    16
CTC2_L_00472026-01
1 10100U 24048PC  26075.70046296  .00000000  00000+0  00000-0 0  9993
2 10100  82.0000 300.0000 0000000   0.0000 300.0000 15.08756051    19
CTC2_L_00472026-02
1 10101U 25578CJ  26075.70046296  .00000000  00000+0  00000-0 0  9993
2 10101  82.0000 300.0000 0000000   0.0000  30.0000 15.08756051    10
CTC2_L_00472026-03
1 10102U 25912HV  26075.70046296  .00000000  00000+0  00000-0 0  9996
2 10102  82.0000 300.0000 0000000   0.0000 120.0000 15.08756051    11
CTC2_L_00472026-04
1 10103U 26961HA  26075.70046296  .00000000  00000+0  00000-0 0  9992
2 10103  82.0000 300.0000 0000000   0.0000 210.0000 15.08756051    12
CTC2_L_00472027-01
1 10104U 22692UU  26075.70046296  .00000000  00000+0  00000-0 0  9990
2 10104  82.0000 312.0000 0000000   0.0000 312.0000 15.08756051    19
CTC2_L_00472027-02
1 10105U 22229KJ  26075.70046296  .00000000  00000+0  00000-0 0  9997
2 10105  82.0000 312.0000 0000000   0.0000  42.0000 15.08756051    10
CTC2_L_00472027-03
1 10106U 25821AM  26075.70046296  .00000000  00000+0  00000-0 0  9999
2 10106  82.0000 312.0000 0000000   0.0000 132.0000 15.08756051    11
CTC2_L_00472027-04
1 10107U 26742UT  26075.70046296  .00000000  00000+0  00000-0 0  9993
2 10107  82.0000 312.0000 0000000   0.0000 222.0000 15.08756051    12
CTC2_L_00472028-01
1 10108U 25759WD  26075.70046296  .00000000  00000+0  00000-0 0  9991
2 10108  82.0000 324.0000 0000000   0.0000 324.0000 15.08756051    19
CTC2_L_00472028-02
1 10109U 25331DS  26075.70046296  .00000000  00000+0  00000-0 0  9998
2 10109  82.0000 324.0000 0000000   0.0000  54.0000 15.08756051    10
CTC2_L_00472028-03
1 10110U 23575YB  26075.70046296  .00000000  00000+0  00000-0 0  9998
2 10110  82.0000 324.0000 0000000   0.0000 144.0000 15.08756051    12
CTC2_L_00472028-04
1 10111U 25920FT  26075.70046296  .00000000  00000+0  00000-0 0  9995
2 10111  82.0000 324.0000 0000000   0.0000 234.0000 15.08756051    13
CTC2_L_00472029-01
1 10112U 24569HX  26075.70046296  .00000000  00000+0  00000-0 0  9994
2 10112  82.0000 336.0000 0000000   0.0000 336.0000 15.08756051    10
CTC2_L_00472029-02
1 10113U 24326DZ  26075.70046296  .00000000  00000+0  00000-0 0  9996
2 10113  82.0000 336.0000 0000000   0.0000  66.0000 15.08756051    11
CTC2_L_00472029-03
1 10114U 23475TT  26075.70046296  .00000000  00000+0  00000-0 0  9991
2 10114  82.0000 336.0000 0000000   0.0000 156.0000 15.08756051    12
CTC2_L_00472029-04
1 10115U 25146ZO  26075.70046296  .00000000  00000+0  00000-0 0  9999
2 10115  82.0000 336.0000 0000000   0.0000 246.0000 15.08756051    13
CTC2_L_00472030-01
1 10116U 24762CX  26075.70046296  .00000000  00000+0  00000-0 0  9993
2 10116  82.0000 348.0000 0000000   0.0000 348.0000 15.08756051    10
CTC2_L_00472030-02
1 10117U 22501CU  26075.70046296  .00000000  00000+0  00000-0 0  9993
2 10117  82.0000 348.0000 0000000   0.0000  78.0000 15.08756051    11
CTC2_L_00472030-03
1 10118U 26846HU  26075.70046296  .00000000  00000+0  00000-0 0  9990
2 10118  82.0000 348.0000 0000000   0.0000 168.0000 15.08756051    12
CTC2_L_00472030-04
1 10119U 22415ZX  26075.70046296  .00000000  00000+0  00000-0 0  9999
2 10119  82.0000 348.0000 0000000   0.0000 258.0000 15.08756051    13
